#aV2013  7 22  0  0  0.00000000     288 DD+AD WGS84 FIT  NGA
## 1750  86400.00000000   300.00000000 56495 0.0000000000000
+   31     1  2  3  4  5  6  7  8  9 10 11 12 13 14 15 16 17
+         18 19 20 21 22 23 24 25 26 27 28 29 31 32  0  0  0
+          0  0  0  0  0  0  0  0  0  0  0  0  0  0  0  0  0
+          0  0  0  0  0  0  0  0  0  0  0  0  0  0  0  0  0
+          0  0  0  0  0  0  0  0  0  0  0  0  0  0  0  0  0
++         2  2  2  2  2  2  2  2  2  2  2  2  2  2  2  2  2
++         2  2  2  2  2  2  2  2  2  2  2  2  2  2  2  0  0
++         0  0  0  0  0  0  0  0  0  0  0  0  0  0  0  0  0
++         0  0  0  0  0  0  0  0  0  0  0  0  0  0  0  0  0
++         0  0  0  0  0  0  0  0  0  0  0  0  0  0  0  0  0
%c cc cc ccc ccc cccc cccc cccc cccc ccccc ccccc ccccc ccccc
%c cc cc ccc ccc cccc cccc cccc cccc ccccc ccccc ccccc ccccc
%f  0.0000000  0.000000000  0.00000000000  0.000000000000000
%f  0.0000000  0.000000000  0.00000000000  0.000000000000000
%i    0    0    0    0      0      0      0      0         0
%i    0    0    0    0      0      0      0      0         0
/*      NGA, ST. LOUIS,MO.                                  
/*   EPHEMERIS COMPUTED FROM  1 DAYS OF DATA
/*   EPOCHA SMOOTHER  
/* CCCCCCCCCCCCCCCCCCCCCCCCCCCCCCCCCCCCCCCCCCCCCCCCCCCCCCCCC
*  2013  7 22  1 30  0.00000000                                                 
P  1  19748.856814  13671.896127 -11463.152979     53.145622                    
V  1 -14597.672647  -1544.923903 -26941.140014      0.050146                    
P  2   3680.578390 -15357.755850  21573.492112    442.857244                    
V  2  26123.958168   6690.035802   -199.136497      0.017992                    
P  3  -4600.175457  22650.395669 -13428.610790    235.745753                    
V  3 -12069.469852  11379.369422  24496.149328      0.048803                    
P  4  16698.337741  -9402.045822  18213.904238    278.725485                    
V  4  22456.732770   7760.491345 -16055.504723      0.103613                    
P  5   -599.493829 -25142.649778   8282.350174   -398.854993                    
V  5   5752.407056   9442.046181  29134.538519     -0.004120                    
P  6 -11474.220320  22194.737120  -8362.222382    131.338076                    
V  6  -9776.141956   5845.739882  29064.259895     -0.181270                    
P  7  25984.555915   5562.469518  -2862.598392    238.697858                    
V  7   2926.437866   3018.714368  31595.700265      0.042106                    
P  8  23311.372211     82.742721 -13169.874848      7.523578                    
V  8  15119.599626   6971.362647  25988.996732      0.002338                    
P  9  21029.706347  -5340.500271 -15922.870018    256.114379                    
V  9  18174.832013   6143.135674  22639.077062      0.026156                    
P 10  11240.146480 -13495.543106  19505.189961    -87.777793                    
V 10   7755.542825  24454.272211  12678.491898     -0.012998                    
P 11  14031.155746  14180.750320 -18096.900492   -402.995557                    
V 11 -22206.645664   3055.381938 -14937.948559     -0.035520                    
P 12 -10315.031943 -23509.734079   7162.790166    146.113152                    
V 12   -289.184653  -9257.423332 -30407.179627      0.021271                    
P 13  18963.451522    548.764032  18514.283296     97.664901                    
V 13 -17666.639739  15814.006765  17364.276697     -0.036895                    
P 14 -21314.093282  15271.412313  -3475.669765    219.058356                    
V 14   1895.343564  -4969.672222 -31738.084634     -0.004819                    
P 15  -6261.319749 -15377.457073 -20712.721872   -128.669673                    
V 15  18851.777196 -18455.508941   8273.356424     -0.016974                    
P 16   -602.253001  24908.225646   8664.600907   -249.861762                    
V 16  -4407.377520 -10429.399761  29897.391640      0.005453                    
P 17  21248.446463 -14830.042884  -5007.321448     -3.347145                    
V 17  -3018.463832   6582.923953 -31174.753153     -0.037920                    
P 18 -16565.796028  -3434.353226 -20124.160133    264.828295                    
V 18  -5878.674119 -25918.427329   8726.494921      0.018772                    
P 19    523.982017  17531.811513 -19918.250627   -390.614464                    
V 19 -20239.720805  15049.583657  13200.294862     -0.029162                    
P 20  14921.205276  18896.270371  11121.493767    110.811446                    
V 20   1338.012527  14734.594429 -26348.564394      0.023375                    
P 21 -26006.666519  -2835.639500  -5376.490704   -309.578607                    
V 21  -6380.047057  -5097.992540  29777.219125     -0.019553                    
P 22 -13182.586095  10327.490877 -20387.272025    176.674861                    
V 22  -7846.099279 -25356.255792  -7842.149525      0.017413                    
P 23  12662.251223   9025.350625  21640.585597     64.755678                    
V 23 -19469.234879  19102.592586   3036.560284     -0.035306                    
P 24 -16664.821493 -14824.691047 -14465.220691    -10.376758                    
V 24  18279.402387   2562.875628 -23661.000571     -0.006657                    
P 25 -15696.127332 -12404.019228  17461.670329    125.398557                    
V 25  -4461.451184 -21814.268629 -19343.520116      0.050867                    
P 26   8718.336588 -20341.696750 -15077.846890    107.228591                    
V 26  15051.525038 -10235.665686  23833.898467      0.168652                    
P 27  -9312.784668  21579.332734 -12370.574970    -13.827492                    
V 27 -12732.725730   9474.911796  26136.996497     -0.048967                    
P 28  13471.513764  -5746.194053 -21562.784056    277.698189                    
V 28   6125.358175  28086.497770  -3731.113807      0.031392                    
P 29 -17813.536857  -2143.162722  19613.441726    455.566133                    
V 29  17621.717035 -17496.271795  14168.636889      0.032958                    
P 31 -15780.252636   9035.724920  19626.316694    321.359481                    
V 31 -23165.303702  -7755.887545 -14912.937751      0.010672                    
P 32   7771.456097  25306.919734   4573.279812   -557.638433                    
V 32  -1673.127396   5956.986324 -30438.366809      0.009966                    
EOF
